LEMUR-2-PETERG          
1 42841U 17042S   26068.48235713  .00023240  00000+0  81076-3 0  9993
2 42841  97.3980 253.6596 0003700 341.6938  18.4169 15.29611459473171
STARLINK-2559           
1 48298U 21036Y   26068.31881813 -.00000238  00000+0  40918-5 0  9998
2 48298  53.1633  77.1558 0001598 106.0928 254.0248 15.30196017268358
